CUTE-1 (CO-55)          
1 27844U 03031E   22193.88978057  .00000249  00000+0  13131-3 0  9997
2 27844  98.6779 201.1912 0010558  34.7384 325.4481 14.22465729987482
CUBESAT XI-IV (CO-57)   
1 27848U 03031J   22192.94599425  .00000181  00000+0  10151-3 0  9999
2 27848  98.6824 200.7764 0010709  50.3293 309.8828 14.22020505987163
CUBESAT XI-V            
1 28895U 05043F   22193.86918129  .00000884  00000+0  17590-3 0  9999
2 28895  98.1097 324.8601 0017808  64.0448 296.2587 14.64382617891135
CUTE-1.7+APD II (CO-65) 
1 32785U 08021C   22193.82152498  .00001813  00000+0  19494-3 0  9994
2 32785  97.6586 163.8688 0013460 143.7707 216.4425 14.89661098770269
AAUSAT-II               
1 32788U 08021F   22193.69426748  .00005067  00000+0  43723-3 0  9991
2 32788  97.5327 178.1177 0012211  45.2566 314.9648 14.97642892772216
DELFI-C3 (DO-64)        
1 32789U 08021G   22193.86136633  .00015552  00000+0  85151-3 0  9993
2 32789  97.3374 219.2466 0008742 226.0750 133.9761 15.14282702775772
SEEDS II (CO-66)        
1 32791U 08021J   22193.84863319  .00002739  00000+0  26981-3 0  9991
2 32791  97.6119 169.3612 0014304 103.3253 256.9562 14.92772632770983
SWISSCUBE               
1 35932U 09051B   22192.55157411  .00000522  00000+0  12724-3 0  9999
2 35932  98.5664  49.1592 0007176 343.6214  16.4750 14.56890087679605
BEESAT-1                
1 35933U 09051C   22193.53658793  .00000559  00000+0  13545-3 0  9990
2 35933  98.5603  51.7841 0005630 356.4940   3.6217 14.56904713679828
ITUPSAT1                
1 35935U 09051E   22193.84425058  .00000526  00000+0  13065-3 0  9993
2 35935  98.5704  52.1494 0007947 354.8526   5.2588 14.56011958679577
TISAT 1                 
1 36799U 10035E   22193.31790842  .00002551  00000+0  25113-3 0  9991
2 36799  98.1801  44.7403 0012249  20.8144 339.3571 14.92985817651470
M-CUBED & EXP-1 PRIME   
1 37855U 11061F   22193.83890685  .00008701  00000+0  37992-3 0  9999
2 37855 101.7122 326.3553 0152180 346.2445  13.4645 15.12732436585078
AEROCUBE 4.5A           
1 38767U 12048K   22193.87223028  .00003584  00000+0  25393-3 0  9999
2 38767  64.6656  31.0124 0175173 255.6374 102.5239 14.94970905154586
AEROCUBE 4.5B           
1 38768U 12048L   22193.80736361  .00007190  00000+0  45108-3 0  9995
2 38768  64.6672 345.1951 0162089 251.0723 107.2764 14.99758291154955
STRAND-1                
1 39090U 13009E   22193.11664432  .00000197  00000+0  83610-4 0  9996
2 39090  98.4036  30.6078 0008710 190.3908 169.7099 14.35301788490939
BRITE-AUSTRIA           
1 39091U 13009F   22193.79883860  .00000150  00000+0  67422-4 0  9991
2 39091  98.4051  30.4440 0010051 196.2722 163.8142 14.35282375491067
SOMP                    
1 39134U 13015E   22193.74852608  .00017014  00000+0  59529-3 0  9992
2 39134  64.8625 338.8397 0035387 276.0584  83.6516 15.29057622510725
BEESAT-3                
1 39135U 13015F   22193.85149489  .00012476  00000+0  50574-3 0  9999
2 39135  64.8662  15.1604 0038516 282.1273  77.5542 15.24267498509989
BEESAT-2                
1 39136U 13015G   22193.85039363  .00011608  00000+0  49307-3 0  9997
2 39136  64.8750  23.4688 0017789 296.5883  63.3423 15.23272964509789
NEE-01 PEGASO           
1 39151U 13018B   22193.78078502  .00001364  00000+0  18261-3 0  9990
2 39151  97.9932 299.3590 0017157 168.5787 191.5818 14.80989257497422
ESTCUBE 1               
1 39161U 13021C   22193.76102134  .00000697  00000+0  11605-3 0  9995
2 39161  97.9080 270.3397 0009170 349.0036  11.0970 14.72990278493191
POPACS 1                
1 39268U 13055D   22193.49851831  .00015743  00000+0  39452-3 0  9993
2 39268  80.9940 212.5503 0570491 124.8381 240.7852 14.50955831456937
POPACS 2                
1 39269U 13055E   22193.64111325  .00006180  00000+0  17162-3 0  9997
2 39269  81.0131 269.9369 0644765 273.6174  79.1542 14.33207398453797
POPACS 3                
1 39270U 13055F   22193.56412419  .00006058  00000+0  18290-3 0  9995
2 39270  81.0157 303.3340 0688214   8.2303 352.9493 14.22161532432209
ZACUBE-1 (TSHEPISOSAT)  
1 39417U 13066B   22193.88238044  .00002025  00000+0  25224-3 0  9990
2 39417  97.6376 164.2336 0056785 322.7312  36.9967 14.82423447466892
WNISAT-1                
1 39423U 13066H   22193.90338854  .00000536  00000+0  11390-3 0  9994
2 39423  97.7513  73.5044 0175811  58.4438 303.3797 14.53507956458153
TRITON-1                
1 39427U 13066M   22193.80985970  .00001073  00000+0  17459-3 0  9993
2 39427  97.8134 128.5046 0111552 182.9132 177.1438 14.69014570462501
DELFI-N3XT              
1 39428U 13066N   22193.79327098  .00001638  00000+0  25851-3 0  9995
2 39428  97.8146 127.0646 0116495 196.1882 163.5590 14.69258976462255
GOMX-1                  
1 39430U 13066Q   22193.73975500  .00001107  00000+0  20567-3 0  9999
2 39430  97.8085  99.4942 0148631 325.7605  33.4083 14.60245905459988
CUBEBUG-2 (LO-74)       
1 39440U 13066AA  22193.85984157  .00002091  00000+0  28799-3 0  9999
2 39440  97.7272 150.3500 0080028  49.7696 311.0480 14.77071708464035
NEE-02 KRYSAOR          
1 39441U 13066AB  22193.81620325  .00001467  00000+0  20987-3 0  9997
2 39441  97.7383 147.4802 0082018  63.3954 297.5630 14.75787430463770
FUNCUBE-1 (AO-73)       
1 39444U 13066AE  22193.88039776  .00002693  00000+0  32496-3 0  9991
2 39444  97.6249 166.6405 0055315 310.5909  49.0499 14.83521773465299
UWE-3                   
1 39446U 13066AG  22193.83764099  .00002152  00000+0  28242-3 0  9995
2 39446  97.6867 156.8057 0068958   7.9416 352.2871 14.79640498464213
AEROCUBE 5A             
1 39465U 13072D   22193.36673383  .00035936  00000+0  20726-2 0  9990
2 39465 120.4867  45.5545 0196009 306.5466  51.7698 14.97334771153359
AEROCUBE 5B             
1 39466U 13072E   22193.88972571  .00123823  00000+0  42983-2 0  9991
2 39466 120.4570 136.8907 0137773 330.1464  29.1808 15.20359006154595
BRITE-CA1 (TORONTO)     
1 40020U 14033L   22193.72156062  .00000763  00000+0  13695-3 0  9995
2 40020  97.7808 351.3984 0086797 181.9538 178.1341 14.67065015431369
DUCHIFAT-1              
1 40021U 14033M   22193.80901166  .00004366  00000+0  42523-3 0  9993
2 40021  98.0133 144.4733 0011471 323.9728  36.0717 14.93002640438487
NANOSATC-BR1            
1 40024U 14033Q   22193.83377581  .00002993  00000+0  30209-3 0  9999
2 40024  97.9860 137.7348 0011197 330.8342  29.2250 14.91828830437767
QB50P1                  
1 40025U 14033R   22193.83398535  .00002988  00000+0  31090-3 0  9995
2 40025  97.9608 131.4329 0011665 341.1872  18.8913 14.90590045437540
QB50P2                  
1 40032U 14033Y   22193.80212957  .00002156  00000+0  22930-3 0  9993
2 40032  97.9381 126.6864 0011114 339.4290  20.6478 14.90011100437399
PERSEUS-M2              
1 40037U 14033AD  22193.74037709  .00000910  00000+0  10730-3 0  9992
2 40037  97.8960 115.8205 0014306   1.2247 358.9001 14.87137860436887
PERSEUS-M1              
1 40039U 14033AF  22193.74179280  .00000876  00000+0  10448-3 0  9992
2 40039  97.8861 113.5387 0014118   0.4741 359.6485 14.86746395436765
POLYITAN-1              
1 40042U 14033AJ  22193.78065040  .00003453  00000+0  35785-3 0  9993
2 40042  97.9712 132.6036 0013624 332.2302  27.8187 14.90628744437427
TIGRISAT                
1 40043U 14033AK  22193.05617673  .00000940  00000+0  14265-3 0  9997
2 40043  97.6562  20.9880 0060718  77.1549 283.6435 14.75051374433255
AEROCUBE 6A             
1 40045U 14033AM  22193.47700239  .00001133  00000+0  16537-3 0  9995
2 40045  97.6656  30.2334 0058361  63.8620 296.8579 14.76442934433478
AEROCUBE 6B             
1 40046U 14033AN  22193.78712611  .00002124  00000+0  30164-3 0  9990
2 40046  97.6569  28.9781 0057210  61.1277 299.5658 14.76804683433520
UKUBE-1                 
1 40074U 14037F   22193.61185679  .00001393  00000+0  16839-3 0  9995
2 40074  98.3785  75.5953 0003577 195.6225 164.4886 14.85471059433802
BRITE-PL2 (HEWELIUSZ)   
1 40119U 14049B   22193.81138276  .00001106  00000+0  13520-3 0  9997
2 40119  97.8847 289.1775 0017867 155.0735 205.1347 14.85173192427774
FIREBIRD 4              
1 40378U 15003C   22193.37139463  .00016745  00000+0  49250-3 0  9999
2 40378  99.0983  64.0663 0097822 300.7590  58.4041 15.30504122412236
GRIFEX                  
1 40379U 15003D   22193.34585390  .00010520  00000+0  36920-3 0  9996
2 40379  99.1095  49.6799 0114338 344.3004  15.4692 15.23602536411411
CP10 (EXOCUBE)          
1 40380U 15003E   22193.30607292  .00007610  00000+0  29113-3 0  9992
2 40380  99.1187  42.3405 0123014   8.8060 351.5287 15.20132805410938
TIANWANG 1A (TW-1A)     
1 40928U 15051D   22193.88217858  .00038352  00000+0  44702-3 0  9999
2 40928  97.0368 216.3397 0004277 293.5079 188.6287 15.61563553382209
EXACTVIEW 9             
1 40936U 15052G   22192.34664179  .00001463  00000+0  11333-3 0  9998
2 40936   6.0046   3.0277 0009927 137.2750 222.8150 14.77189741366757
AEROCUBE 5C             
1 40965U 15058B   22193.86487982  .00002067  00000+0  24315-3 0  9994
2 40965  64.7778  14.2398 0189852 192.1228 167.5278 14.75665868152718
AEROCUBE 7              
1 40966U 15058C   22193.85386796  .00003075  00000+0  34940-3 0  9990
2 40966  64.7788  11.4035 0187819 191.7900 167.8780 14.76229756152736
ATHENOXAT 1             
1 41168U 15077C   22193.90726852  .00012567  00000+0  50777-3 0  9995
2 41168  14.9838 261.6856 0008874 235.8466 105.3939 15.21495801364188
GALASSIA                
1 41170U 15077E   22193.51745885  .00011984  00000+0  49354-3 0  9993
2 41170  14.9882 255.5815 0010673 259.9075 100.0043 15.20741336364049
VELOX-II                
1 41171U 15077F   22193.71770709  .00009274  00000+0  43146-3 0  9991
2 41171  14.9925 328.6615 0007785 100.4194 259.7005 15.16058832363451
HORYU-4                 
1 41340U 16012D   22193.40294078  .00002997  00000+0  20837-3 0  9992
2 41340  31.0028 199.7749 0013131  89.1611 271.0530 15.03437574351487
